[{"OBJECT_NAME":"DIWATA-2B","OBJECT_ID":"2018-084H","EPOCH":"2026-03-09T23:44:16.821312","MEAN_MOTION":14.99967379,"ECCENTRICITY":0.00117782,"INCLINATION":98.1039,"RA_OF_ASC_NODE":261.0381,"ARG_OF_PERICENTER":125.8755,"MEAN_ANOMALY":234.3563,"EPHEMERIS_TYPE":0,"CLASSIFICATION_TYPE":"U","NORAD_CAT_ID":43678,"ELEMENT_SET_NO":999,"REV_AT_EPOCH":40134,"BSTAR":0.00041230334,"MEAN_MOTION_DOT":5.066e-5,"MEAN_MOTION_DDOT":0},{"OBJECT_NAME":"STARLINK-36190","OBJECT_ID":"2025-293AC","EPOCH":"2026-03-09T11:46:34.094496","MEAN_MOTION":14.98334017,"ECCENTRICITY":0.00041469,"INCLINATION":70.0004,"RA_OF_ASC_NODE":95.1339,"ARG_OF_PERICENTER":267.3595,"MEAN_ANOMALY":92.709,"EPHEMERIS_TYPE":0,"CLASSIFICATION_TYPE":"U","NORAD_CAT_ID":67029,"ELEMENT_SET_NO":999,"REV_AT_EPOCH":1485,"BSTAR":0.00017601562,"MEAN_MOTION_DOT":2.008e-5,"MEAN_MOTION_DDOT":0}]
